0 SL-12 R/B(2)
1 14333U 83088F   13284.02564868 -.00000173  00000-0  10000-3 0  7330
2 14333 015.7704 356.5221 0015142 035.6728 324.4395 00.97615993 71140
0 SL-12 R/B(2)
1 14333U 83088F   13286.07442332 -.00000145  00000-0  10000-3 0  7348
2 14333 015.7707 356.5015 0015308 035.8804 324.2275 00.97615338 71165
0 SL-12 R/B(2)
1 14333U 83088F   13292.22082736 -.00000073  00000-0  10000-3 0  7351
2 14333 015.7717 356.4399 0014665 032.2329 327.8489 00.97613756 71223
0 SL-12 R/B(2)
1 14333U 83088F   13294.26965140 -.00000085  00000-0  10000-3 0  7360
2 14333 015.7720 356.4194 0014639 032.6073 327.4764 00.97614104 71243
